start=new Date('2023-06-01T00:00:00.000Z').valueOf();
sats=[{"REV_AT_EPOCH":"12422","SEMIMAJOR_AXIS":"6925.362","CENTER_NAME":"EARTH","ELEMENT_SET_NO":"999","ECCENTRICITY":"0.00016280","EPHEMERIS_TYPE":"0","TLE_LINE2":"2 47794  53.0549  98.3457 0001628  84.3736 275.7439 15.06395575124227","RCS_SIZE":"LARGE","RA_OF_ASC_NODE":"98.3457","OBJECT_TYPE":"PAYLOAD","SITE":"AFETR","TLE_LINE1":"1 47794U 21018H   23151.86919743  .00000453  00000-0  49319-4 0  9994","LAUNCH_DATE":"2021-03-11","DECAY_DATE":null,"ARG_OF_PERICENTER":"84.3736","EPOCH":"2023-05-31T20:51:38.657952","MEAN_MOTION":"15.06395575","MEAN_MOTION_DOT":"0.00000453","OBJECT_ID":"2021-018H","APOAPSIS":"548.355","FILE":"3922037","TIME_SYSTEM":"UTC","MEAN_MOTION_DDOT":"0.0000000000000","REF_FRAME":"TEME","GP_ID":"232925235","COUNTRY_CODE":"US","INCLINATION":"53.0549","PERIOD":"95.592","BSTAR":"0.00004931900000","MEAN_ELEMENT_THEORY":"SGP4","MEAN_ANOMALY":"275.7439","OBJECT_NAME":"STARLINK-2341","CLASSIFICATION_TYPE":"U","NORAD_CAT_ID":"47794","PERIAPSIS":"546.100"},{"REV_AT_EPOCH":"12427","CENTER_NAME":"EARTH","SEMIMAJOR_AXIS":"6925.485","ELEMENT_SET_NO":"999","ECCENTRICITY":"0.00014720","TLE_LINE2":"2 47795  53.0564  98.3875 0001472 116.9272 243.1868 15.06355488124272","EPHEMERIS_TYPE":"0","RCS_SIZE":"LARGE","RA_OF_ASC_NODE":"98.3875","SITE":"AFETR","OBJECT_TYPE":"PAYLOAD","TLE_LINE1":"1 47795U 21018J   23151.85814348  .00006556  00000-0  45916-3 0  9997","LAUNCH_DATE":"2021-03-11","DECAY_DATE":null,"ARG_OF_PERICENTER":"116.9272","EPOCH":"2023-05-31T20:35:43.596672","MEAN_MOTION":"15.06355488","MEAN_MOTION_DOT":"0.00006556","APOAPSIS":"548.369","OBJECT_ID":"2021-018J","FILE":"3922037","MEAN_MOTION_DDOT":"0.0000000000000","REF_FRAME":"TEME","TIME_SYSTEM":"UTC","BSTAR":"0.00045916000000","PERIOD":"95.595","INCLINATION":"53.0564","GP_ID":"232925485","COUNTRY_CODE":"US","MEAN_ELEMENT_THEORY":"SGP4","MEAN_ANOMALY":"243.1868","OBJECT_NAME":"STARLINK-2347","NORAD_CAT_ID":"47795","CLASSIFICATION_TYPE":"U","PERIAPSIS":"546.331"},{"APOAPSIS":"548.275","OBJECT_ID":"2021-018K","MEAN_MOTION_DOT":"0.00003209","MEAN_MOTION":"15.06391382","EPOCH":"2023-05-31T20:56:57.736608","ARG_OF_PERICENTER":"86.2662","DECAY_DATE":null,"LAUNCH_DATE":"2021-03-11","TLE_LINE1":"1 47796U 21018K   23151.87289047  .00003209  00000-0  23429-3 0  9999","SITE":"AFETR","OBJECT_TYPE":"PAYLOAD","PERIAPSIS":"546.205","NORAD_CAT_ID":"47796","CLASSIFICATION_TYPE":"U","OBJECT_NAME":"STARLINK-2373","MEAN_ANOMALY":"273.8498","MEAN_ELEMENT_THEORY":"SGP4","BSTAR":"0.00023429000000","PERIOD":"95.593","INCLINATION":"53.0543","COUNTRY_CODE":"US","GP_ID":"232926736","REF_FRAME":"TEME","MEAN_MOTION_DDOT":"0.0000000000000","TIME_SYSTEM":"UTC","FILE":"3922037","ELEMENT_SET_NO":"999","CENTER_NAME":"EARTH","SEMIMAJOR_AXIS":"6925.375","REV_AT_EPOCH":"12422","RCS_SIZE":"LARGE","RA_OF_ASC_NODE":"98.3252","TLE_LINE2":"2 47796  53.0543  98.3252 0001494  86.2662 273.8498 15.06391382124222","EPHEMERIS_TYPE":"0","ECCENTRICITY":"0.00014940"},{"ARG_OF_PERICENTER":"89.2785","EPOCH":"2023-05-31T15:27:12.092544","MEAN_MOTION_DOT":"0.00000516","MEAN_MOTION":"15.06395847","OBJECT_ID":"2021-018L","APOAPSIS":"548.019","OBJECT_TYPE":"PAYLOAD","SITE":"AFETR","TLE_LINE1":"1 47797U 21018L   23151.64388996  .00000516  00000-0  53557-4 0  9992","LAUNCH_DATE":"2021-03-11","DECAY_DATE":null,"OBJECT_NAME":"STARLINK-2377","CLASSIFICATION_TYPE":"U","NORAD_CAT_ID":"47797","PERIAPSIS":"546.434","FILE":"3922037","TIME_SYSTEM":"UTC","MEAN_MOTION_DDOT":"0.0000000000000","REF_FRAME":"TEME","GP_ID":"232926987","COUNTRY_CODE":"US","INCLINATION":"53.0544","PERIOD":"95.592","BSTAR":"0.00005355700000","MEAN_ELEMENT_THEORY":"SGP4","MEAN_ANOMALY":"270.8335","SEMIMAJOR_AXIS":"6925.361","CENTER_NAME":"EARTH","ELEMENT_SET_NO":"999","REV_AT_EPOCH":"12383","RCS_SIZE":"LARGE","RA_OF_ASC_NODE":"124.3590","ECCENTRICITY":"0.00011440","EPHEMERIS_TYPE":"0","TLE_LINE2":"2 47797  53.0544 124.3590 0001144  89.2785 270.8335 15.06395847123833"},{"FILE":"3921890","TIME_SYSTEM":"UTC","REF_FRAME":"TEME","MEAN_MOTION_DDOT":"0.0000000000000","GP_ID":"232901265","COUNTRY_CODE":"US","PERIOD":"95.591","BSTAR":"0.00013655000000","INCLINATION":"53.0553","MEAN_ELEMENT_THEORY":"SGP4","MEAN_ANOMALY":"270.3388","OBJECT_NAME":"STARLINK-2379","CLASSIFICATION_TYPE":"U","NORAD_CAT_ID":"47798","PERIAPSIS":"546.358","OBJECT_TYPE":"PAYLOAD","SITE":"AFETR","TLE_LINE1":"1 47798U 21018M   23151.28680339  .00001754  00000-0  13655-3 0  9998","LAUNCH_DATE":"2021-03-11","DECAY_DATE":null,"ARG_OF_PERICENTER":"89.7735","EPOCH":"2023-05-31T06:52:59.812896","MEAN_MOTION_DOT":"0.00001754","MEAN_MOTION":"15.06415463","OBJECT_ID":"2021-018M","APOAPSIS":"547.974","ECCENTRICITY":"0.00011670","EPHEMERIS_TYPE":"0","TLE_LINE2":"2 47798  53.0553 100.9589 0001167  89.7735 270.3388 15.06415463123781","RA_OF_ASC_NODE":"100.9589","RCS_SIZE":"LARGE","REV_AT_EPOCH":"12378","SEMIMAJOR_AXIS":"6925.301","CENTER_NAME":"EARTH","ELEMENT_SET_NO":"999"},{"DECAY_DATE":null,"LAUNCH_DATE":"2021-03-11","TLE_LINE1":"1 47799U 21018N   23151.88025035  .00001166  00000-0  97193-4 0  9998","SITE":"AFETR","OBJECT_TYPE":"PAYLOAD","APOAPSIS":"548.582","OBJECT_ID":"2021-018N","MEAN_MOTION":"15.06402821","MEAN_MOTION_DOT":"0.00001166","EPOCH":"2023-05-31T21:07:33.630240","ARG_OF_PERICENTER":"95.5706","MEAN_ANOMALY":"264.5510","MEAN_ELEMENT_THEORY":"SGP4","INCLINATION":"53.0534","PERIOD":"95.592","BSTAR":"0.00009719300000","COUNTRY_CODE":"US","GP_ID":"232925985","MEAN_MOTION_DDOT":"0.0000000000000","REF_FRAME":"TEME","TIME_SYSTEM":"UTC","FILE":"3922037","PERIAPSIS":"545.828","NORAD_CAT_ID":"47799","CLASSIFICATION_TYPE":"U","OBJECT_NAME":"STARLINK-2380","REV_AT_EPOCH":"12421","ELEMENT_SET_NO":"999","CENTER_NAME":"EARTH","SEMIMAJOR_AXIS":"6925.340","TLE_LINE2":"2 47799  53.0534  98.2936 0001988  95.5706 264.5510 15.06402821124215","EPHEMERIS_TYPE":"0","ECCENTRICITY":"0.00019880","RA_OF_ASC_NODE":"98.2936","RCS_SIZE":"LARGE"},{"RCS_SIZE":"LARGE","RA_OF_ASC_NODE":"98.4933","TLE_LINE2":"2 47800  53.0517  98.4933 0001723 101.6150 258.5032 15.06397022124215","EPHEMERIS_TYPE":"0","ECCENTRICITY":"0.00017230","CENTER_NAME":"EARTH","SEMIMAJOR_AXIS":"6925.358","ELEMENT_SET_NO":"999","REV_AT_EPOCH":"12421","OBJECT_NAME":"STARLINK-2381","PERIAPSIS":"546.029","NORAD_CAT_ID":"47800","CLASSIFICATION_TYPE":"U","REF_FRAME":"TEME","MEAN_MOTION_DDOT":"0.0000000000000","TIME_SYSTEM":"UTC","FILE":"3922037","MEAN_ELEMENT_THEORY":"SGP4","MEAN_ANOMALY":"258.5032","BSTAR":"0.00012808000000","PERIOD":"95.592","INCLINATION":"53.0517","GP_ID":"232926237","COUNTRY_CODE":"US","EPOCH":"2023-05-31T20:03:52.731072","ARG_OF_PERICENTER":"101.6150","APOAPSIS":"548.416","OBJECT_ID":"2021-018P","MEAN_MOTION_DOT":"0.00001627","MEAN_MOTION":"15.06397022","TLE_LINE1":"1 47800U 21018P   23151.83602698  .00001627  00000-0  12808-3 0  9993","SITE":"AFETR","OBJECT_TYPE":"PAYLOAD","DECAY_DATE":null,"LAUNCH_DATE":"2021-03-11"},{"TLE_LINE1":"1 47801U 21018Q   23151.87059230  .00002158  00000-0  16379-3 0  9993","OBJECT_TYPE":"PAYLOAD","SITE":"AFETR","DECAY_DATE":null,"LAUNCH_DATE":"2021-03-11","EPOCH":"2023-05-31T20:53:39.174720","ARG_OF_PERICENTER":"91.4771","OBJECT_ID":"2021-018Q","APOAPSIS":"548.064","MEAN_MOTION":"15.06389494","MEAN_MOTION_DOT":"0.00002158","TIME_SYSTEM":"UTC","MEAN_MOTION_DDOT":"0.0000000000000","REF_FRAME":"TEME","FILE":"3922037","MEAN_ELEMENT_THEORY":"SGP4","MEAN_ANOMALY":"268.6354","GP_ID":"232926488","COUNTRY_CODE":"US","INCLINATION":"53.0550","PERIOD":"95.593","BSTAR":"0.00016379000000","OBJECT_NAME":"STARLINK-2382","PERIAPSIS":"546.427","CLASSIFICATION_TYPE":"U","NORAD_CAT_ID":"47801","REV_AT_EPOCH":"12415","SEMIMAJOR_AXIS":"6925.381","CENTER_NAME":"EARTH","ELEMENT_SET_NO":"999","EPHEMERIS_TYPE":"0","TLE_LINE2":"2 47801  53.0550 103.4192 0001182  91.4771 268.6354 15.06389494124157","ECCENTRICITY":"0.00011820","RA_OF_ASC_NODE":"103.4192","RCS_SIZE":"LARGE"},{"RA_OF_ASC_NODE":"124.3233","RCS_SIZE":"LARGE","ECCENTRICITY":"0.00011680","TLE_LINE2":"2 47802  53.0543 124.3233 0001168  87.6956 272.4167 15.06394367123849","EPHEMERIS_TYPE":"0","CENTER_NAME":"EARTH","SEMIMAJOR_AXIS":"6925.366","ELEMENT_SET_NO":"999","REV_AT_EPOCH":"12384","OBJECT_NAME":"STARLINK-2383","NORAD_CAT_ID":"47802","CLASSIFICATION_TYPE":"U","PERIAPSIS":"546.422","FILE":"3922037","REF_FRAME":"TEME","MEAN_MOTION_DDOT":"0.0000000000000","TIME_SYSTEM":"UTC","PERIOD":"95.592","BSTAR":"0.00003193100000","INCLINATION":"53.0543","GP_ID":"232925236","COUNTRY_CODE":"US","MEAN_ELEMENT_THEORY":"SGP4","MEAN_ANOMALY":"272.4167","ARG_OF_PERICENTER":"87.6956","EPOCH":"2023-05-31T15:37:49.274400","MEAN_MOTION_DOT":"0.00000194","MEAN_MOTION":"15.06394367","APOAPSIS":"548.040","OBJECT_ID":"2021-018R","SITE":"AFETR","OBJECT_TYPE":"PAYLOAD","TLE_LINE1":"1 47802U 21018R   23151.65126475  .00000194  00000-0  31931-4 0  9996","LAUNCH_DATE":"2021-03-11","DECAY_DATE":null},{"ARG_OF_PERICENTER":"87.5342","EPOCH":"2023-05-31T05:59:57.461568","MEAN_MOTION_DOT":"-0.00000747","MEAN_MOTION":"15.06394333","APOAPSIS":"548.044","OBJECT_ID":"2021-018S","SITE":"AFETR","OBJECT_TYPE":"PAYLOAD","TLE_LINE1":"1 47803U 21018S   23151.24997062 -.00000747  00000-0 -31265-4 0  9996","LAUNCH_DATE":"2021-03-11","DECAY_DATE":null,"OBJECT_NAME":"STARLINK-2384","NORAD_CAT_ID":"47803","CLASSIFICATION_TYPE":"U","PERIAPSIS":"546.418","FILE":"3921767","REF_FRAME":"TEME","MEAN_MOTION_DDOT":"0.0000000000000","TIME_SYSTEM":"UTC","INCLINATION":"53.0544","PERIOD":"95.592","BSTAR":"-0.00003126500000","COUNTRY_CODE":"US","GP_ID":"232893222","MEAN_ELEMENT_THEORY":"SGP4","MEAN_ANOMALY":"272.5781","CENTER_NAME":"EARTH","SEMIMAJOR_AXIS":"6925.366","ELEMENT_SET_NO":"999","REV_AT_EPOCH":"12412","RA_OF_ASC_NODE":"101.1221","RCS_SIZE":"LARGE","ECCENTRICITY":"0.00011740","TLE_LINE2":"2 47803  53.0544 101.1221 0001174  87.5342 272.5781 15.06394333124124","EPHEMERIS_TYPE":"0"}];
